"id;name;state_id;state_code;state_name;country_id;country_code;country_name;latitude;longitude;wikiDataId"
"130185;Cho Dok;3794;44;An Giang;240;VN;Vietnam;1.070.000.000;10.511.667.000;Q373214"
"130211;Huy?n An Ph�;3794;44;An Giang;240;VN;Vietnam;1.084.274.000;10.508.990.000;Q2414515"
"130248;Huy?n Ch�u Ph�;3794;44;An Giang;240;VN;Vietnam;1.057.166.000;10.516.991.000;Q2232482"
"130262;Huy?n Ch? M?i;3794;44;An Giang;240;VN;Vietnam;1.047.730.000;10.549.092.000;Q1927073"
"130401;Huy?n Ph� T�n;3794;44;An Giang;240;VN;Vietnam;1.065.716.000;10.528.459.000;Q1319796"
"130461;Huy?n Tri T�n;3794;44;An Giang;240;VN;Vietnam;1.041.416.000;10.496.136.000;Q1320227"
"130569;Long Xuy�n;3794;44;An Giang;240;VN;Vietnam;1.038.639.000;10.543.518.000;Q31942265"
"130570;Long Xuy�n City;3794;44;An Giang;240;VN;Vietnam;1.036.857.000;10.542.340.000;Q33421"
"130189;C�n S?n;3770;43;B� R?a-V?ng T�u;240;VN;Vietnam;868.641.000;10.660.824.000;Q25262"
"130255;Huy?n Ch�u ??c;3770;43;B� R?a-V?ng T�u;240;VN;Vietnam;1.065.805.000;10.725.098.000;Q1319826"
"130539;Huy?n ??t ??;3770;43;B� R?a-V?ng T�u;240;VN;Vietnam;1.048.025.000;10.727.879.000;Q2414015"
"130487;Huy?n T�n Th�nh;3770;43;B� R?a-V?ng T�u;240;VN;Vietnam;1.057.381.000;10.710.189.000;Q3711512"
"130510;Huy?n Xuy�n M?c;3770;43;B� R?a-V?ng T�u;240;VN;Vietnam;1.063.048.000;10.746.568.000;Q1758257"
"130604;Th�nh Ph? V?ng T�u;3770;43;B� R?a-V?ng T�u;240;VN;Vietnam;1.040.239.000;10.714.239.000;Q21194"
"130613;Th? X� Ph� M?;3770;43;B� R?a-V?ng T�u;240;VN;Vietnam;1.056.815.000;10.712.999.000;Q1320204"
"130626;V?ng T�u;3770;43;B� R?a-V?ng T�u;240;VN;Vietnam;1.034.599.000;10.708.426.000;Q36088"
"130177;B?c Giang;3815;54;B?c Giang;240;VN;Vietnam;2.127.307.000;10.619.460.000;Q36736"
"130353;Huy?n L?c Nam;3815;54;B?c Giang;240;VN;Vietnam;2.127.548.000;10.646.519.000;Q1924548"
"130354;Huy?n L?c Ng?n;3815;54;B?c Giang;240;VN;Vietnam;2.143.719.000;10.665.845.000;Q2226906"
"130521;Huy?n Y�n Th?;3815;54;B?c Giang;240;VN;Vietnam;2.151.667.000;10.611.689.000;Q1924620"
"130178;B?c K?n;3822;53;B?c K?n;240;VN;Vietnam;2.214.701.000;10.583.481.000;Q75700"
"130213;Huy?n Ba B?;3822;53;B?c K?n;240;VN;Vietnam;2.241.667.000;10.575.000.000;Q1124233"
"130228;Huy?n B?ch Th�ng;3822;53;B?c K?n;240;VN;Vietnam;2.225.758.000;10.583.295.000;Q3710674"
"130263;Huy?n Ch? ??n;3822;53;B?c K?n;240;VN;Vietnam;2.218.681.000;10.557.280.000;Q800052"
"130374;Huy?n Na R�;3822;53;B?c K?n;240;VN;Vietnam;2.217.883.000;10.611.221.000;Q3711221"
"130387;Huy?n Ng�n S?n;3822;53;B?c K?n;240;VN;Vietnam;2.242.962.000;10.601.030.000;Q3711242"
"130608;Th? X� B?c K?n;3822;53;B?c K?n;240;VN;Vietnam;2.214.130.000;10.583.867.000;Q26581"
"130175;B?c Li�u;3804;55;B?c Li�u;240;VN;Vietnam;929.414.000;10.572.776.000;Q36142"
"130289;Huy?n Gi� Rai;3804;55;B?c Li�u;240;VN;Vietnam;927.162.000;10.540.017.000;Q3031261"
"130318;Huy?n H?ng D�n;3804;55;B?c Li�u;240;VN;Vietnam;953.822.000;10.542.242.000;Q5942590"
"130179;B?c Ninh;3791;56;B?c Ninh;240;VN;Vietnam;2.118.608.000;10.607.631.000;Q33381"
"130186;Cung Ki?m;3791;56;B?c Ninh;240;VN;Vietnam;2.118.697.000;10.616.076.000;Q373214"
"130285;Huy?n Gia B�nh;3791;56;B?c Ninh;240;VN;Vietnam;2.107.795.000;10.620.903.000;Q3031197"
"130441;Huy?n Thu?n Th�nh;3791;56;B?c Ninh;240;VN;Vietnam;2.104.085.000;10.607.515.000;Q3711534"
"130455;Huy?n Ti�n Du;3791;56;B?c Ninh;240;VN;Vietnam;2.112.195.000;10.603.995.000;Q3711538"
"130518;Huy?n Y�n Phong;3791;56;B?c Ninh;240;VN;Vietnam;2.120.676.000;10.599.427.000;Q800053"
"130635;?p T�n Ng�i;3796;50;B?n Tre;240;VN;Vietnam;1.023.333.000;10.628.333.000;Q33343"
"130180;B?n Tre;3796;50;B?n Tre;240;VN;Vietnam;1.024.147.000;10.637.585.000;Q36635"
"130215;Huy?n Ba Tri;3796;50;B?n Tre;240;VN;Vietnam;1.006.627.000;10.660.554.000;Q3710671"
"130226;Huy?n B�nh ??i;3796;50;B?n Tre;240;VN;Vietnam;1.019.354.000;10.664.455.000;Q3710726"
"130250;Huy?n Ch�u Th�nh;3796;50;B?n Tre;240;VN;Vietnam;1.029.212.000;10.630.827.000;Q3710806"
"130261;Huy?n Ch? L�ch;3796;50;B?n Tre;240;VN;Vietnam;1.022.674.000;10.617.077.000;Q567923"
"130291;Huy?n Gi?ng Tr�m;3796;50;B?n Tre;240;VN;Vietnam;1.015.909.000;10.647.004.000;Q3710927"
"130449;Huy?n Th?nh Ph�;3796;50;B?n Tre;240;VN;Vietnam;992.993.000;10.654.316.000;Q3711530"
"130198;D? An;3785;57;B�nh D??ng;240;VN;Vietnam;1.090.682.000;10.676.940.000;Q1320364"
"130616;Th? D?u M?t;3785;57;B�nh D??ng;240;VN;Vietnam;1.098.040.000;10.665.190.000;Q1320204"
"130209;Huy?n An L�o;3830;31;B�nh ??nh;240;VN;Vietnam;1.455.676.000;10.880.100.000;Q724711"
"130298;Huy?n Ho�i Nh?n;3830;31;B�nh ??nh;240;VN;Vietnam;1.450.535.000;10.902.315.000;Q3710927"
"130397;Huy?n Ph� M?;3830;31;B�nh ??nh;240;VN;Vietnam;1.422.304.000;10.908.611.000;Q724739"
"130490;Huy?n T�y S?n;3830;31;B�nh ??nh;240;VN;Vietnam;1.394.306.000;10.887.999.000;Q3711512"
"130476;Huy?n Tuy Ph??c;3830;31;B�nh ??nh;240;VN;Vietnam;1.384.564.000;10.915.275.000;Q286486"
"130503;Huy?n V?nh Th?nh;3830;31;B�nh ??nh;240;VN;Vietnam;1.421.100.000;10.874.389.000;Q7932536"
"130584;Qui Nhon;3830;31;B�nh ??nh;240;VN;Vietnam;1.377.648.000;10.922.367.000;Q36081"
"130174;B�nh Long;3797;58;B�nh Ph??c;240;VN;Vietnam;1.164.711.000;10.660.586.000;Q33469"
"130197;Don Luan;3797;58;B�nh Ph??c;240;VN;Vietnam;1.153.495.000;10.688.324.000;Q36027"
"130227;Huy?n B� ??p;3797;58;B�nh Ph??c;240;VN;Vietnam;1.200.374.000;10.681.545.000;Q3710726"
"130256;Huy?n Ch?n Th�nh;3797;58;B�nh Ph??c;240;VN;Vietnam;1.146.283.000;10.666.655.000;Q1319826"
"130547;Huy?n ??ng Ph�;3797;58;B�nh Ph??c;240;VN;Vietnam;1.150.071.000;10.701.192.000;Q3593897"
"130319;Huy?n H?n Qu?n;3797;58;B�nh Ph??c;240;VN;Vietnam;1.159.718.000;10.662.739.000;Q5942590"
"130614;Th? X� Ph??c Long;3797;58;B�nh Ph??c;240;VN;Vietnam;1.181.142.000;10.699.670.000;Q1320204"
"130233;Huy?n B?c B�nh;3787;40;B�nh Thu?n;240;VN;Vietnam;1.127.571.000;10.838.506.000;Q3710674"
"130304;Huy?n H�m T�n;3787;40;B�nh Thu?n;240;VN;Vietnam;1.076.856.000;10.764.233.000;Q5643878"
"130302;Huy?n H�m Thu?n B?c;3787;40;B�nh Thu?n;240;VN;Vietnam;1.114.703.000;10.808.172.000;Q3710927"
"130303;Huy?n H�m Thu?n Nam;3787;40;B�nh Thu?n;240;VN;Vietnam;1.092.101.000;10.793.325.000;Q3710927"
"130479;Huy?n T�nh Linh;3787;40;B�nh Thu?n;240;VN;Vietnam;1.111.367.000;10.768.427.000;Q2232329"
"130475;Huy?n Tuy Phong;3787;40;B�nh Thu?n;240;VN;Vietnam;1.134.746.000;10.870.466.000;Q286486"
"130567;La Gi;3787;40;B�nh Thu?n;240;VN;Vietnam;1.065.993.000;10.777.206.000;Q6462754"
"130579;Phan Thi?t;3787;40;B�nh Thu?n;240;VN;Vietnam;1.092.889.000;10.810.208.000;Q19013"
"130601;Th�nh Ph? Phan Thi?t;3787;40;B�nh Thu?n;240;VN;Vietnam;1.093.700.000;10.815.778.000;Q25315"
"130187;C� Mau;3778;59;C� Mau;240;VN;Vietnam;917.682.000;10.515.242.000;Q25262"
"130267;Huy?n C�i N??c;3778;59;C� Mau;240;VN;Vietnam;900.094.000;10.504.201.000;Q800052"
"130540;Huy?n ??m D?i;3778;59;C� Mau;240;VN;Vietnam;896.029.000;10.524.107.000;Q3593897"
"130204;Huyen Nam Can;3778;59;C� Mau;240;VN;Vietnam;881.531.000;10.505.574.000;Q724711"
"130453;Huy?n Th?i B�nh;3778;59;C� Mau;240;VN;Vietnam;935.790.000;10.516.023.000;Q7786654"
"148322;C?n Th?;4925;CT;C?n Th?;240;VN;Vietnam;1.011.667.000;10.550.000.000;Q216075"
"148323;C? ??;4925;CT;C?n Th?;240;VN;Vietnam;1.009.472.222;10.543.194.444;Q10752716"
"148324;Th?i Lai;4925;CT;C?n Th?;240;VN;Vietnam;1.006.305.556;10.556.083.333;Q10826644"
"148325;V?nh Th?nh;4925;CT;C?n Th?;240;VN;Vietnam;1.021.916.667;10.540.111.111;Q10833701"
"130183;Cao B?ng;3782;4;Cao B?ng;240;VN;Vietnam;2.266.568.000;10.625.786.000;Q1034096"
"130229;Huy?n B?o Lac;3782;4;Cao B?ng;240;VN;Vietnam;2.290.085.000;10.573.332.000;Q3710674"
"130231;Huy?n B?o L�m;3782;4;Cao B?ng;240;VN;Vietnam;2.287.041.000;10.548.780.000;Q3710674"
"130313;Huy?n H? Lang;3782;4;Cao B?ng;240;VN;Vietnam;2.270.933.000;10.667.657.000;Q5942590"
"130300;Huy?n H� Qu?ng;3782;4;Cao B?ng;240;VN;Vietnam;2.290.763.000;10.612.487.000;Q3710927"
"130386;Huy?n Nguy�n B�nh;3782;4;Cao B?ng;240;VN;Vietnam;2.262.400.000;10.593.248.000;Q3031601"
"130206;Huyen Phuc Hoa;3782;4;Cao B?ng;240;VN;Vietnam;2.253.840.000;10.651.039.000;Q724711"
"130446;Huy?n Th?ch An;3782;4;Cao B?ng;240;VN;Vietnam;2.247.654.000;10.634.237.000;Q3711534"
"130444;Huy?n Th�ng N�ng;3782;4;Cao B?ng;240;VN;Vietnam;2.280.735.000;10.595.846.000;Q3711534"
"130466;Huy?n Tr� L?nh;3782;4;Cao B?ng;240;VN;Vietnam;2.280.961.000;10.632.543.000;Q7831038"
"130469;Huy?n Tr�ng Kh�nh;3782;4;Cao B?ng;240;VN;Vietnam;2.283.333.000;10.656.074.000;Q7831038"
"130195;Da Nang;3806;DN;?� N?ng;240;VN;Vietnam;1.606.778.000;10.822.083.000;Q55963184"
"130173;Bu�n Ma Thu?t;3829;33;??k L?k;240;VN;Vietnam;1.266.747.000;10.803.775.000;Q33469"
"130217;Huy?n Bu�n ?�n;3829;33;??k L?k;240;VN;Vietnam;1.290.396.000;10.773.870.000;Q3710671"
"130283;Huy?n Ea H'Leo;3829;33;??k L?k;240;VN;Vietnam;1.331.814.000;10.807.148.000;Q3031197"
"130284;Huy?n Ea S�p;3829;33;??k L?k;240;VN;Vietnam;1.318.279.000;10.779.954.000;Q3031197"
"130269;Huy?n C? J�t;3823;72;??k N�ng;240;VN;Vietnam;1.269.591.000;10.776.316.000;Q800052"
"130544;Huy?n ??k R�L?p;3823;72;??k N�ng;240;VN;Vietnam;1.187.990.000;10.752.244.000;Q3593897"
"130333;Huy?n Kr�ng N�;3823;72;??k N�ng;240;VN;Vietnam;1.236.285.000;10.783.445.000;Q6405298"
"130196;Dien Bien Phu;3773;71;?i?n Bi�n;240;VN;Vietnam;2.138.602.000;10.302.301.000;Q36027"
"130528;Huy?n ?i?n Bi�n ?�ng;3773;71;?i?n Bi�n;240;VN;Vietnam;2.125.266.000;10.326.900.000;Q5295738"
"130365;Huy?n M??ng Nh�;3773;71;?i?n Bi�n;240;VN;Vietnam;2.210.353.000;10.258.465.000;Q10796264"
"130493;Huy?n T?a Ch�a;3773;71;?i?n Bi�n;240;VN;Vietnam;2.195.357.000;10.337.332.000;Q7484836"
"130478;Huy?n Tu?n Gi�o;3773;71;?i?n Bi�n;240;VN;Vietnam;2.169.481.000;10.341.758.000;Q2232329"
"130611;Th? X� M?�ng Lay;3773;71;?i?n Bi�n;240;VN;Vietnam;2.203.374.000;10.312.331.000;Q3031171"
"130172;Bi�n H�a;3821;39;??ng Nai;240;VN;Vietnam;1.094.469.000;10.682.432.000;Q19316"
"130546;Huy?n ??nh Qu�n;3821;39;??ng Nai;240;VN;Vietnam;1.121.866.000;10.733.959.000;Q3593897"
"130344;Huy?n Long Th�nh;3821;39;??ng Nai;240;VN;Vietnam;1.076.162.000;10.702.688.000;Q3711115"
"130485;Huy?n T�n Ph�;3821;39;??ng Nai;240;VN;Vietnam;1.139.867.000;10.739.976.000;Q3711512"
"130452;Huy?n Th?ng Nh?t;3821;39;??ng Nai;240;VN;Vietnam;1.097.764.000;10.715.909.000;Q3711530"
"130471;Huy?n Tr?ng Bom;3821;39;??ng Nai;240;VN;Vietnam;1.096.624.000;10.703.614.000;Q7831038"
"130498;Huy?n V?nh C?u;3821;39;??ng Nai;240;VN;Vietnam;1.125.725.000;10.702.773.000;Q7484836"
"130184;Cao L�nh;3769;45;??ng Th�p;240;VN;Vietnam;1.046.017.000;10.563.294.000;Q35656"
"130253;Huy?n Ch�u Th�nh;3769;45;??ng Th�p;240;VN;Vietnam;1.022.543.000;10.582.380.000;Q3710806"
"130340;Huy?n Lai Vung;3769;45;??ng Th�p;240;VN;Vietnam;1.024.051.000;10.566.327.000;Q6473680"
"130351;Huy?n L?p V�;3769;45;??ng Th�p;240;VN;Vietnam;1.035.918.000;10.560.611.000;Q1320095"
"130430;Huy?n Tam N�ng;3769;45;??ng Th�p;240;VN;Vietnam;1.072.761.000;10.552.522.000;Q3711485"
"130483;Huy?n T�n H?ng;3769;45;??ng Th�p;240;VN;Vietnam;1.087.089.000;10.549.104.000;Q3711512"
"130435;Huy?n Thanh B�nh;3769;45;??ng Th�p;240;VN;Vietnam;1.060.137.000;10.547.811.000;Q7710095"
"130443;Huy?n Th�p M??i;3769;45;??ng Th�p;240;VN;Vietnam;1.054.398.000;10.581.875.000;Q3711534"
"130589;Sa Dec;3769;45;??ng Th�p;240;VN;Vietnam;1.029.085.000;10.575.635.000;Q36093"
"130590;Sa Dec city;3769;45;??ng Th�p;240;VN;Vietnam;1.030.550.000;10.574.757.000;Q2987563"
"130607;Th? Tr?n T�n Th�nh;3769;45;??ng Th�p;240;VN;Vietnam;1.025.616.000;10.559.280.000;Q26581"
"130258;Huy?n Ch? P?h;3813;30;Gia Lai;240;VN;Vietnam;1.415.941.000;10.798.411.000;Q1319826"
"130257;Huy?n Ch? Pr�ng;3813;30;Gia Lai;240;VN;Vietnam;1.359.976.000;10.781.099.000;Q1319826"
"130259;Huy?n Ch? S�;3813;30;Gia Lai;240;VN;Vietnam;1.374.254.000;10.808.663.000;Q1319826"
"130549;Huy?n ??c C?;3813;30;Gia Lai;240;VN;Vietnam;1.378.454.000;10.766.970.000;Q5295775"
"130320;Huy?n Ia Grai;3813;30;Gia Lai;240;VN;Vietnam;1.398.937.000;10.773.740.000;Q5942590"
"130322;Huy?n KBang;3813;30;Gia Lai;240;VN;Vietnam;1.430.506.000;10.849.779.000;Q20025812"
"130335;Huy?n K�ng Chro;3813;30;Gia Lai;240;VN;Vietnam;1.373.519.000;10.859.697.000;Q6405298"
"130334;Huy?n Kr�ng Pa;3813;30;Gia Lai;240;VN;Vietnam;1.323.152.000;10.865.494.000;Q6405298"
"130358;Huy?n Mang Yang;3813;30;Gia Lai;240;VN;Vietnam;1.392.840.000;10.830.246.000;Q2226906"
"130583;Pleiku;3813;30;Gia Lai;240;VN;Vietnam;1.398.333.000;10.800.000.000;Q30599"
"130555;H� Giang;3779;3;H� Giang;240;VN;Vietnam;2.282.333.000;10.498.357.000;Q36519"
"130235;Huy?n B?c M�;3779;3;H� Giang;240;VN;Vietnam;2.275.477.000;10.529.023.000;Q4838559"
"130236;Huy?n B?c Quang;3779;3;H� Giang;240;VN;Vietnam;2.242.301.000;10.491.831.000;Q4838559"
"130548;Huy?n ??ng V?n;3779;3;H� Giang;240;VN;Vietnam;2.325.449.000;10.527.626.000;Q5295775"
"130406;Huy?n Quang B�nh;3779;3;H� Giang;240;VN;Vietnam;2.241.507.000;10.466.018.000;Q3091652"
"130508;Huy?n V? Xuy�n;3779;3;H� Giang;240;VN;Vietnam;2.273.096.000;10.490.827.000;Q7932536"
"130511;Huy?n X�n M?n;3779;3;H� Giang;240;VN;Vietnam;2.264.148.000;10.452.089.000;Q1758257"
"130516;Huy?n Y�n Minh;3779;3;H� Giang;240;VN;Vietnam;2.306.992.000;10.517.865.000;Q8052181"
"130223;Huy?n B�nh L?c;3802;63;H� Nam;240;VN;Vietnam;2.050.126.000;10.602.959.000;Q800057"
"130280;Huy?n Duy Ti�n;3802;63;H� Nam;240;VN;Vietnam;2.062.803.000;10.596.193.000;Q3031197"
"130326;Huy?n Kim B?ng;3802;63;H� Nam;240;VN;Vietnam;2.057.254.000;10.585.043.000;Q20025812"
"130347;Huy?n L� Nh�n;3802;63;H� Nam;240;VN;Vietnam;2.056.422.000;10.609.455.000;Q3711115"
"130437;Huy?n Thanh Li�m;3802;63;H� Nam;240;VN;Vietnam;2.046.249.000;10.592.100.000;Q7710095"
"130582;Ph? L�;3802;63;H� Nam;240;VN;Vietnam;2.054.531.000;10.591.221.000;Q35659"
"130558;H� ?�ng;3810;HN;H� N?i;240;VN;Vietnam;2.097.136.000;10.577.876.000;Q33996"
"130201;Hanoi;3810;HN;H� N?i;240;VN;Vietnam;2.102.450.000;10.584.117.000;Q1858"
"130412;Huy?n Qu?c Oai;3810;HN;H� N?i;240;VN;Vietnam;2.097.060.000;10.561.127.000;Q5370368"
"130586;Qu?n Ba ?�nh;3810;HN;H� N?i;240;VN;Vietnam;2.103.587.000;10.582.163.000;Q890194"
"130587;Qu?n H� ?�ng;3810;HN;H� N?i;240;VN;Vietnam;2.095.482.000;10.576.851.000;Q546840"
"130595;S?n T�y;3810;HN;H� N?i;240;VN;Vietnam;2.114.053.000;10.550.686.000;Q1365138"
"130557;H� T?nh;3816;23;H� T?nh;240;VN;Vietnam;1.834.282.000;10.590.569.000;Q33996"
"130277;Huy?n C?m Xuy�n;3816;23;H� T?nh;240;VN;Vietnam;1.819.059.000;10.600.186.000;Q3031197"
"130243;Huy?n Can L?c;3816;23;H� T?nh;240;VN;Vietnam;1.844.414.000;10.576.350.000;Q4838559"
"130525;Huy?n �?c Th?;3816;23;H� T?nh;240;VN;Vietnam;1.849.699.000;10.561.016.000;Q5295738"
"130337;Huy?n K? Anh;3816;23;H� T?nh;240;VN;Vietnam;1.805.805.000;10.624.580.000;Q6405298"
"130382;Huy?n Nghi Xu�n;3816;23;H� T?nh;240;VN;Vietnam;1.862.419.000;10.576.829.000;Q3031601"
"130447;Huy?n Th?ch H�;3816;23;H� T?nh;240;VN;Vietnam;1.835.091.000;10.581.123.000;Q3711534"
"130562;H?i D??ng;3827;61;H?i D??ng;240;VN;Vietnam;2.094.099.000;10.633.302.000;Q36354"
"130221;Huy?n B�nh Giang;3827;61;H?i D??ng;240;VN;Vietnam;2.087.586.000;10.619.138.000;Q3031078"
"130274;Huy?n C?m Gi�ng;3827;61;H?i D??ng;240;VN;Vietnam;2.095.000.000;10.621.667.000;Q3031197"
"130286;Huy?n Gia L?c;3827;61;H?i D??ng;240;VN;Vietnam;2.085.164.000;10.629.130.000;Q3031261"
"130329;Huy?n Kinh M�n;3827;61;H?i D??ng;240;VN;Vietnam;2.101.634.000;10.650.384.000;Q3031344"
"130376;Huy?n Nam S�ch;3827;61;H?i D??ng;240;VN;Vietnam;2.100.484.000;10.634.042.000;Q3031601"
"130438;Huy?n Thanh Mi?n;3827;61;H?i D??ng;240;VN;Vietnam;2.077.953.000;10.622.218.000;Q3031911"
"130609;Th? X� Ch� Linh;3827;61;H?i D??ng;240;VN;Vietnam;2.113.722.000;10.639.638.000;Q3031171"
"130188;C�t B�;3783;HP;H?i Ph�ng;240;VN;Vietnam;2.072.779.000;10.704.819.000;Q25262"
"130200;Haiphong;3783;HP;H?i Ph�ng;240;VN;Vietnam;2.086.481.000;10.668.345.000;Q3277075"
"130254;Huy?n Ch�u Th�nh A;3777;73;H?u Giang;240;VN;Vietnam;993.056.000;10.564.194.000;Q3710806"
"130627;V? Thanh;3777;73;H?u Giang;240;VN;Vietnam;978.449.000;10.547.012.000;Q36114"
"130191;C?n Gi?;3811;SG;H? Ch� Minh;240;VN;Vietnam;1.041.115.000;10.695.474.000;Q25262"
"130194;C? Chi;3811;SG;H? Ch� Minh;240;VN;Vietnam;1.097.333.000;10.649.325.000;Q55963184"
"130202;Ho Chi Minh City;3811;SG;H? Ch� Minh;240;VN;Vietnam;1.082.302.000;10.662.965.000;Q1854"
"130559;H�a B�nh;3799;14;H�a B�nh;240;VN;Vietnam;2.081.717.000;10.533.759.000;Q130324"
"130245;Huy?n Cao Phong;3799;14;H�a B�nh;240;VN;Vietnam;2.069.532.000;10.533.559.000;Q4838559"
"130338;Huy?n K? S?n;3799;14;H�a B�nh;240;VN;Vietnam;2.089.631.000;10.539.659.000;Q6405298"
"130350;Huy?n L?c Th?y;3799;14;H�a B�nh;240;VN;Vietnam;2.049.794.000;10.574.092.000;Q1320095"
"130349;Huy?n L??ng S?n;3799;14;H�a B�nh;240;VN;Vietnam;2.087.650.000;10.551.219.000;Q1320095"
"130484;Huy?n T�n L?c;3799;14;H�a B�nh;240;VN;Vietnam;2.060.557.000;10.523.399.000;Q3711512"
"130560;H?ng Y�n;3768;66;H?ng Y�n;240;VN;Vietnam;2.064.637.000;10.605.112.000;Q36485"
"130523;Huy?n �n Thi;3768;66;H?ng Y�n;240;VN;Vietnam;2.081.086.000;10.609.995.000;Q1924620"
"130323;Huy?n Kho�i Ch�u;3768;66;H?ng Y�n;240;VN;Vietnam;2.082.170.000;10.597.455.000;Q20025812"
"130328;Huy?n Kim ??ng;3768;66;H?ng Y�n;240;VN;Vietnam;2.074.645.000;10.603.632.000;Q20025812"
"130369;Huy?n M? H�o;3768;66;H?ng Y�n;240;VN;Vietnam;2.093.210.000;10.610.630.000;Q10796264"
"130396;Huy?n Ph� C?;3768;66;H?ng Y�n;240;VN;Vietnam;2.070.997.000;10.619.744.000;Q724739"
"130456;Huy?n Ti�n L?;3768;66;H?ng Y�n;240;VN;Vietnam;2.068.490.000;10.612.513.000;Q3711538"
"130182;Cam Ranh;3793;34;Kh�nh H�a;240;VN;Vietnam;1.192.144.000;10.915.913.000;Q31887770"
"130278;Huy?n Di�n Kh�nh;3793;34;Kh�nh H�a;240;VN;Vietnam;1.227.341.000;10.903.890.000;Q3031197"
"130324;Huy?n Kh�nh S?n;3793;34;Kh�nh H�a;240;VN;Vietnam;1.202.858.000;10.890.814.000;Q20025812"
"130325;Huy?n Kh�nh V?nh;3793;34;Kh�nh H�a;240;VN;Vietnam;1.230.593.000;10.883.073.000;Q20025812"
"130506;Huy?n V?n Ninh;3793;34;Kh�nh H�a;240;VN;Vietnam;1.272.344.000;10.924.586.000;Q7932536"
"130576;Nha Trang;3793;34;Kh�nh H�a;240;VN;Vietnam;1.224.507.000;10.919.432.000;Q19491"
"130598;Th�nh Ph? Cam Ranh;3793;34;Kh�nh H�a;240;VN;Vietnam;1.190.707.000;10.914.861.000;Q36175"
"130600;Th�nh Ph? Nha Trang;3793;34;Kh�nh H�a;240;VN;Vietnam;1.225.458.000;10.916.655.000;Q36175"
"130612;Th? X� Ninh H�a;3793;34;Kh�nh H�a;240;VN;Vietnam;1.253.796.000;10.906.057.000;Q3031171"
"130199;D??ng ?�ng;3800;47;Ki�n Giang;240;VN;Vietnam;1.021.716.000;10.395.929.000;Q3277075"
"130556;H� Ti�n;3800;47;Ki�n Giang;240;VN;Vietnam;1.038.310.000;10.448.753.000;Q800154"
"130208;Huy?n An Bi�n;3800;47;Ki�n Giang;240;VN;Vietnam;981.291.000;10.505.230.000;Q724711"
"130210;Huy?n An Minh;3800;47;Ki�n Giang;240;VN;Vietnam;966.704.000;10.494.848.000;Q724711"
"130249;Huy?n Ch�u Th�nh;3800;47;Ki�n Giang;240;VN;Vietnam;994.372.000;10.516.868.000;Q2232482"
"130290;Huy?n Gi?ng Ri?ng;3800;47;Ki�n Giang;240;VN;Vietnam;991.224.000;10.537.311.000;Q3031261"
"130295;Huy?n G� Quao;3800;47;Ki�n Giang;240;VN;Vietnam;974.027.000;10.529.766.000;Q3710927"
"130307;Huy?n H�n ??t;3800;47;Ki�n Giang;240;VN;Vietnam;1.022.908.000;10.495.280.000;Q5874252"
"130330;Huy?n Ki�n H?i;3800;47;Ki�n Giang;240;VN;Vietnam;983.971.000;10.461.560.000;Q3031344"
"130400;Huy?n Ph� Qu?c;3800;47;Ki�n Giang;240;VN;Vietnam;1.025.516.000;10.401.455.000;Q724739"
"130481;Huy?n T�n Hi?p;3800;47;Ki�n Giang;240;VN;Vietnam;1.009.540.000;10.525.936.000;Q3711512"
"130502;Huy?n V?nh Thu?n;3800;47;Ki�n Giang;240;VN;Vietnam;953.306.000;10.524.490.000;Q7932536"
"130564;Kien Luong Town;3800;47;Ki�n Giang;240;VN;Vietnam;1.024.892.000;10.459.000.000;Q36160"
"130588;R?ch Gi�;3800;47;Ki�n Giang;240;VN;Vietnam;1.001.245.000;10.508.091.000;Q36093"
"130542;Huy?n ??k Glei;3772;28;Kon Tum;240;VN;Vietnam;1.511.358.000;10.775.093.000;Q3593897"
"130543;Huy?n ??k H�;3772;28;Kon Tum;240;VN;Vietnam;1.460.326.000;10.798.547.000;Q3593897"
"130545;Huy?n ??k T�;3772;28;Kon Tum;240;VN;Vietnam;1.470.087.000;10.780.816.000;Q3593897"
"130321;Huy?n Ia H'Drai;3772;28;Kon Tum;240;VN;Vietnam;1.406.032.000;10.746.243.000;Q20025812"
"130332;Huy?n Kon Pl�ng;3772;28;Kon Tum;240;VN;Vietnam;1.475.620.000;10.832.057.000;Q6405298"
"130388;Huy?n Ng?c H?i;3772;28;Kon Tum;240;VN;Vietnam;1.471.940.000;10.762.636.000;Q3711242"
"130419;Huy?n Sa Th?y;3772;28;Kon Tum;240;VN;Vietnam;1.432.050.000;10.759.862.000;Q7395483"
"130565;Kon Tum;3772;28;Kon Tum;240;VN;Vietnam;1.435.451.000;10.800.759.000;Q36160"
"130361;Huy?n M?�ng T�;3825;1;Lai Ch�u;240;VN;Vietnam;2.237.443.000;10.273.835.000;Q10796264"
"130431;Huy?n Tam ???ng;3825;1;Lai Ch�u;240;VN;Vietnam;2.235.391.000;10.359.342.000;Q3711485"
"130433;Huy?n Than Uy�n;3825;1;Lai Ch�u;240;VN;Vietnam;2.191.424.000;10.382.857.000;Q7710095"
"130176;B?o L?c;3818;35;L�m ??ng;240;VN;Vietnam;1.154.798.000;10.780.772.000;Q35620"
"130632;?am Rong;3818;35;L�m ??ng;240;VN;Vietnam;1.205.409.000;10.814.941.000;Q33343"
"130633;?inh V?n;3818;35;L�m ??ng;240;VN;Vietnam;1.178.624.000;10.824.282.000;Q33343"
"130634;??c Tr?ng;3818;35;L�m ??ng;240;VN;Vietnam;1.173.559.000;10.837.330.000;Q33343"
"130630;�� L?t;3818;35;L�m ??ng;240;VN;Vietnam;1.194.646.000;10.844.193.000;Q25281"
"130230;Huy?n B?o L�m;3818;35;L�m ??ng;240;VN;Vietnam;1.171.163.000;10.775.338.000;Q3710674"
"130536;Huy?n ?? Huoai;3818;35;L�m ??ng;240;VN;Vietnam;1.142.465.000;10.763.825.000;Q5295738"
"130537;Huy?n ?? T?h;3818;35;L�m ??ng;240;VN;Vietnam;1.158.446.000;10.752.792.000;Q5295738"
"130535;Huy?n ??n D??ng;3818;35;L�m ??ng;240;VN;Vietnam;1.175.308.000;10.855.397.000;Q5295738"
"130553;Huy?n ??c Tr?ng;3818;35;L�m ??ng;240;VN;Vietnam;1.162.686.000;10.835.330.000;Q5311201"
"130346;Huy?n L�m H�;3818;35;L�m ??ng;240;VN;Vietnam;1.181.890.000;10.821.215.000;Q3711115"
"130237;Huy?n B?c S?n;3792;9;L?ng S?n;240;VN;Vietnam;2.183.801.000;10.627.690.000;Q4838559"
"130220;Huy?n B�nh Gia;3792;9;L?ng S?n;240;VN;Vietnam;2.207.281.000;10.630.410.000;Q3710671"
"130244;Huy?n Cao L?c;3792;9;L?ng S?n;240;VN;Vietnam;2.189.857.000;10.685.435.000;Q4838559"
"130246;Huy?n Chi L?ng;3792;9;L?ng S?n;240;VN;Vietnam;2.167.602.000;10.662.925.000;Q4838559"
"130531;Huy?n ?�nh L?p;3792;9;L?ng S?n;240;VN;Vietnam;2.154.210.000;10.712.925.000;Q5295738"
"130308;Huy?n H?u L?ng;3792;9;L?ng S?n;240;VN;Vietnam;2.154.474.000;10.634.386.000;Q5874252"
"130507;Huy?n V?n Quan;3792;9;L?ng S?n;240;VN;Vietnam;2.183.333.000;10.654.942.000;Q7932536"
"130572;L?ng S?n;3792;9;L?ng S?n;240;VN;Vietnam;2.185.264.000;10.676.101.000;Q33383"
"130234;Huy?n B?c H�;3817;2;L�o Cai;240;VN;Vietnam;2.250.998.000;10.430.769.000;Q4838559"
"130232;Huy?n B?o Y�n;3817;2;L�o Cai;240;VN;Vietnam;2.226.109.000;10.446.424.000;Q3710674"
"130219;Huy?n B�t X�t;3817;2;L�o Cai;240;VN;Vietnam;2.256.767.000;10.371.339.000;Q3710671"
"130362;Huy?n M??ng Kh??ng;3817;2;L�o Cai;240;VN;Vietnam;2.267.111.000;10.411.772.000;Q10796264"
"130418;Huy?n Sa Pa;3817;2;L�o Cai;240;VN;Vietnam;2.233.769.000;10.384.037.000;Q7395483"
"130420;Huy?n Si Ma Cai;3817;2;L�o Cai;240;VN;Vietnam;2.267.161.000;10.427.326.000;Q7395483"
"130495;Huy?n V?n B�n;3817;2;L�o Cai;240;VN;Vietnam;2.207.002.000;10.418.122.000;Q7484836"
"130571;L�o Cai;3817;2;L�o Cai;240;VN;Vietnam;2.248.556.000;10.397.066.000;Q33421"
"130568;Lao Ch?i;3817;2;L�o Cai;240;VN;Vietnam;2.231.377.000;10.386.844.000;Q31942265"
"130591;Sa Pa;3817;2;L�o Cai;240;VN;Vietnam;2.234.023.000;10.384.415.000;Q1000140"
"130190;C?n Giu?c;3808;41;Long An;240;VN;Vietnam;1.060.857.000;10.667.135.000;Q25262"
"130240;Huy?n B?n L?c;3808;41;Long An;240;VN;Vietnam;1.068.858.000;10.645.484.000;Q4838559"
"130271;Huy?n C?n ???c;3808;41;Long An;240;VN;Vietnam;1.054.148.000;10.659.636.000;Q800052"
"130270;Huy?n C?n Giu?c;3808;41;Long An;240;VN;Vietnam;1.057.742.000;10.667.279.000;Q800052"
"130251;Huy?n Ch�u Th�nh;3808;41;Long An;240;VN;Vietnam;1.045.214.000;10.649.015.000;Q3710806"
"130551;Huy?n ??c H�a;3808;41;Long An;240;VN;Vietnam;1.087.838.000;10.642.422.000;Q5311201"
"130550;Huy?n ??c Hu?;3808;41;Long An;240;VN;Vietnam;1.086.473.000;10.625.914.000;Q5295775"
"130368;Huy?n M?c H�a;3808;41;Long An;240;VN;Vietnam;1.075.166.000;10.601.729.000;Q10796264"
"130482;Huy?n T�n H?ng;3808;41;Long An;240;VN;Vietnam;1.083.380.000;10.568.848.000;Q3711512"
"130488;Huy?n T�n Th?nh;3808;41;Long An;240;VN;Vietnam;1.060.351.000;10.596.576.000;Q3711512"
"130489;Huy?n T�n Tr?;3808;41;Long An;240;VN;Vietnam;1.053.182.000;10.651.644.000;Q3711512"
"130448;Huy?n Th?nh H�a;3808;41;Long An;240;VN;Vietnam;1.066.667.000;10.616.667.000;Q7710339"
"130454;Huy?n Th? Th?a;3808;41;Long An;240;VN;Vietnam;1.065.639.000;10.634.580.000;Q7786654"
"130499;Huy?n V?nh H?ng;3808;41;Long An;240;VN;Vietnam;1.088.299.000;10.580.364.000;Q7484836"
"130620;T�n An;3808;41;Long An;240;VN;Vietnam;1.053.589.000;10.641.366.000;Q33389"
"130287;Huy?n Giao Th?y;3789;67;Nam ??nh;240;VN;Vietnam;2.025.706.000;10.646.245.000;Q3031261"
"130315;Huy?n H?i H?u;3789;67;Nam ??nh;240;VN;Vietnam;2.015.057.000;10.627.161.000;Q5942590"
"130370;Huy?n M? L?c;3789;67;Nam ??nh;240;VN;Vietnam;2.046.079.000;10.612.319.000;Q10796264"
"130377;Huy?n Nam Tr?c;3789;67;Nam ??nh;240;VN;Vietnam;2.034.106.000;10.620.821.000;Q3031601"
"130384;Huy?n Ngh?a H?ng;3789;67;Nam ??nh;240;VN;Vietnam;2.010.598.000;10.617.345.000;Q3031601"
"130474;Huy?n Tr?c Ninh;3789;67;Nam ??nh;240;VN;Vietnam;2.025.690.000;10.624.582.000;Q286486"
"130509;Huy?n V? B?n;3789;67;Nam ??nh;240;VN;Vietnam;2.037.705.000;10.609.707.000;Q7932536"
"130526;Huy?n � Y�n;3789;67;Nam ??nh;240;VN;Vietnam;2.031.669.000;10.602.327.000;Q5295738"
"130575;Nam ??nh;3789;67;Nam ??nh;240;VN;Vietnam;2.043.389.000;10.617.729.000;Q33682"
"130212;Huy?n Anh S?n;3780;22;Ngh? An;240;VN;Vietnam;1.892.902.000;10.508.294.000;Q2414515"
"130264;Huy?n Con Cu�ng;3780;22;Ngh? An;240;VN;Vietnam;1.903.898.000;10.480.353.000;Q800052"
"130279;Huy?n Di?n Ch�u;3780;22;Ngh? An;240;VN;Vietnam;1.898.892.000;10.557.625.000;Q3031197"
"130532;Huy?n ?� L??ng;3780;22;Ngh? An;240;VN;Vietnam;1.889.259.000;10.534.027.000;Q5295738"
"130310;Huy?n H?ng Nguy�n;3780;22;Ngh? An;240;VN;Vietnam;1.867.811.000;10.562.523.000;Q5942590"
"130339;Huy?n K? S?n;3780;22;Ngh? An;240;VN;Vietnam;1.942.397.000;10.422.199.000;Q6405298"
"130378;Huy?n Nam ?�n;3780;22;Ngh? An;240;VN;Vietnam;1.867.041.000;10.552.575.000;Q3031601"
"130381;Huy?n Nghi L?c;3780;22;Ngh? An;240;VN;Vietnam;1.883.131.000;10.562.411.000;Q3031601"
"130385;Huy?n Ngh?a ?�n;3780;22;Ngh? An;240;VN;Vietnam;1.938.234.000;10.544.072.000;Q3031601"
"130411;Huy?n Qu? Phong;3780;22;Ngh? An;240;VN;Vietnam;1.970.177.000;10.487.913.000;Q596473"
"130413;Huy?n Qu? Ch�u;3780;22;Ngh? An;240;VN;Vietnam;1.955.707.000;10.509.173.000;Q5370368"
"130414;Huy?n Qu? H?p;3780;22;Ngh? An;240;VN;Vietnam;1.932.514.000;10.516.009.000;Q5370368"
"130415;Huy?n Qu?nh L?u;3780;22;Ngh? An;240;VN;Vietnam;1.922.717.000;10.564.354.000;Q5370368"
"130436;Huy?n Thanh Ch??ng;3780;22;Ngh? An;240;VN;Vietnam;1.873.929.000;10.524.053.000;Q7710095"
"130492;Huy?n T??ng D??ng;3780;22;Ngh? An;240;VN;Vietnam;1.930.979.000;10.457.788.000;Q3711512"
"130520;Huy?n Y�n Th�nh;3780;22;Ngh? An;240;VN;Vietnam;1.902.724.000;10.543.649.000;Q3711616"
"130622;Vinh;3780;22;Ngh? An;240;VN;Vietnam;1.867.337.000;10.569.232.000;Q33428"
"130629;Y�n Vinh;3780;22;Ngh? An;240;VN;Vietnam;1.866.667.000;10.566.667.000;Q49371602"
"130297;Huy?n Hoa L?;3786;18;Ninh B�nh;240;VN;Vietnam;2.025.391.000;10.590.789.000;Q3710927"
"130327;Huy?n Kim S?n;3786;18;Ninh B�nh;240;VN;Vietnam;2.006.034.000;10.609.863.000;Q20025812"
"130390;Huy?n Nho Quan;3786;18;Ninh B�nh;240;VN;Vietnam;2.027.606.000;10.575.442.000;Q3711242"
"130513;Huy?n Y�n Kh�nh;3786;18;Ninh B�nh;240;VN;Vietnam;2.019.017.000;10.609.605.000;Q8052181"
"130517;Huy?n Y�n M�;3786;18;Ninh B�nh;240;VN;Vietnam;2.012.984.000;10.600.199.000;Q8052181"
"130577;Ninh B�nh;3786;18;Ninh B�nh;240;VN;Vietnam;2.025.809.000;10.597.965.000;Q33929"
"130578;Phan Rang-Th�p Ch�m;3788;36;Ninh Thu?n;240;VN;Vietnam;1.156.432.000;10.898.858.000;Q19013"
"130275;Huy?n C?m Kh�;3801;68;Ph� Th?;240;VN;Vietnam;2.140.683.000;10.509.845.000;Q3031197"
"130530;Huy?n ?oan H�ng;3801;68;Ph� Th?;240;VN;Vietnam;2.161.776.000;10.516.110.000;Q5295738"
"130312;Huy?n H? H�a;3801;68;Ph� Th?;240;VN;Vietnam;2.157.763.000;10.499.464.000;Q5942590"
"130203;Huyen Lam Thao;3801;68;Ph� Th?;240;VN;Vietnam;2.129.971.000;10.531.119.000;Q1854"
"130434;Huy?n Thanh Ba;3801;68;Ph� Th?;240;VN;Vietnam;2.147.816.000;10.515.881.000;Q7710095"
"130515;Huy?n Y�n L?p;3801;68;Ph� Th?;240;VN;Vietnam;2.135.569.000;10.500.493.000;Q8052181"
"130603;Th�nh Ph? Vi?t Tr�;3801;68;Ph� Th?;240;VN;Vietnam;2.132.958.000;10.539.217.000;Q7897883"
"130615;Th? x� Ph� Th?;3801;68;Ph� Th?;240;VN;Vietnam;2.141.664.000;10.523.636.000;Q1320204"
"130623;Vi?t Tr�;3801;68;Ph� Th?;240;VN;Vietnam;2.132.274.000;10.540.198.000;Q36082"
"130425;Huy?n S?n H�a;3824;32;Ph� Y�n;240;VN;Vietnam;1.315.868.000;10.897.281.000;Q3711485"
"130421;Huy?n S�ng Hinh;3824;32;Ph� Y�n;240;VN;Vietnam;1.291.667.000;10.891.667.000;Q7395483"
"130593;S�ng C?u;3824;32;Ph� Y�n;240;VN;Vietnam;1.345.560.000;10.922.348.000;Q33418"
"130618;Tuy H�a;3824;32;Ph� Y�n;240;VN;Vietnam;1.309.546.000;10.932.094.000;Q35747"
"130352;Huy?n L? Th?y;3809;24;Qu?ng B�nh;240;VN;Vietnam;1.711.239.000;10.670.471.000;Q1320095"
"130407;Huy?n Qu?ng Ninh;3809;24;Qu?ng B�nh;240;VN;Vietnam;1.727.067.000;10.651.387.000;Q596473"
"130408;Huy?n Qu?ng Tr?ch;3809;24;Qu?ng B�nh;240;VN;Vietnam;1.783.447.000;10.636.705.000;Q596473"
"130477;Huy?n Tuy�n H�a;3809;24;Qu?ng B�nh;240;VN;Vietnam;1.791.323.000;10.602.678.000;Q2232329"
"130566;Kwang Binh;3809;24;Qu?ng B�nh;240;VN;Vietnam;1.746.885.000;10.662.226.000;Q1877"
"130563;H?i An;3776;27;Qu?ng Nam;240;VN;Vietnam;1.587.944.000;10.833.500.000;Q36160"
"130281;Huy?n Duy Xuy�n;3776;27;Qu?ng Nam;240;VN;Vietnam;1.578.970.000;10.820.247.000;Q3031197"
"130538;Huy?n ??i L?c;3776;27;Qu?ng Nam;240;VN;Vietnam;1.583.721.000;10.797.894.000;Q5295738"
"130529;Huy?n ?i?n B�n;3776;27;Qu?ng Nam;240;VN;Vietnam;1.589.917.000;10.822.470.000;Q5295738"
"130296;Huy?n Hi?p ??c;3776;27;Qu?ng Nam;240;VN;Vietnam;1.553.857.000;10.809.539.000;Q3710927"
"130375;Huy?n Nam Giang;3776;27;Qu?ng Nam;240;VN;Vietnam;1.563.201.000;10.760.267.000;Q3711221"
"130394;Huy?n N�i Th�nh;3776;27;Qu?ng Nam;240;VN;Vietnam;1.543.345.000;10.857.438.000;Q724739"
"130403;Huy?n Ph??c S?n;3776;27;Qu?ng Nam;240;VN;Vietnam;1.538.806.000;10.785.766.000;Q3091652"
"130457;Huy?n Ti�n Ph??c;3776;27;Qu?ng Nam;240;VN;Vietnam;1.547.090.000;10.828.257.000;Q3711538"
"130467;Huy?n Tr� My;3776;27;Qu?ng Nam;240;VN;Vietnam;1.525.000.000;10.808.333.000;Q7831038"
"130596;Tam K?;3776;27;Qu?ng Nam;240;VN;Vietnam;1.557.364.000;10.847.403.000;Q1365138"
"130216;Huy?n Ba T?;3828;29;Qu?ng Ng�i;240;VN;Vietnam;1.473.973.000;10.869.326.000;Q3710671"
"130224;Huy?n B�nh S?n;3828;29;Qu?ng Ng�i;240;VN;Vietnam;1.531.899.000;10.876.383.000;Q800057"
"130552;Huy?n ??c Ph?;3828;29;Qu?ng Ng�i;240;VN;Vietnam;1.478.000.000;10.897.857.000;Q5311201"
"130348;Huy?n L� S?n;3828;29;Qu?ng Ng�i;240;VN;Vietnam;1.540.608.000;10.909.707.000;Q1320095"
"130359;Huy?n Minh Long;3828;29;Qu?ng Ng�i;240;VN;Vietnam;1.495.375.000;10.867.724.000;Q2226906"
"130366;Huy?n M? ??c;3828;29;Qu?ng Ng�i;240;VN;Vietnam;1.495.515.000;10.888.841.000;Q10796264"
"130383;Huy?n Ngh?a H�nh;3828;29;Qu?ng Ng�i;240;VN;Vietnam;1.498.712.000;10.880.036.000;Q3031601"
"130424;Huy?n S?n H�;3828;29;Qu?ng Ng�i;240;VN;Vietnam;1.498.427.000;10.853.643.000;Q3711485"
"130426;Huy?n S?n T�y;3828;29;Qu?ng Ng�i;240;VN;Vietnam;1.496.392.000;10.836.419.000;Q3711485"
"130427;Huy?n S?n T?nh;3828;29;Qu?ng Ng�i;240;VN;Vietnam;1.519.090.000;10.874.295.000;Q3711485"
"130464;Huy?n Tr� B?ng;3828;29;Qu?ng Ng�i;240;VN;Vietnam;1.523.752.000;10.852.633.000;Q1320227"
"130491;Huy?n T? Ngh?a;3828;29;Qu?ng Ng�i;240;VN;Vietnam;1.509.499.000;10.877.053.000;Q3711512"
"130585;Qu?ng Ng�i;3828;29;Qu?ng Ng�i;240;VN;Vietnam;1.512.047.000;10.879.232.000;Q33994"
"130192;C?m Ph?;3814;13;Qu?ng Ninh;240;VN;Vietnam;2.101.004.000;10.727.345.000;Q1031051"
"130193;C?m Ph? Mines;3814;13;Qu?ng Ninh;240;VN;Vietnam;2.101.667.000;10.730.000.000;Q31909451"
"130561;H? Long;3814;13;Qu?ng Ninh;240;VN;Vietnam;2.095.045.000;10.707.336.000;Q36077"
"130214;Huy?n Ba Ch?;3814;13;Qu?ng Ninh;240;VN;Vietnam;2.129.503.000;10.719.298.000;Q1124233"
"130222;Huy?n B�nh Li�u;3814;13;Qu?ng Ninh;240;VN;Vietnam;2.154.389.000;10.744.047.000;Q800057"
"130268;Huy?n C� T�;3814;13;Qu?ng Ninh;240;VN;Vietnam;2.105.418.000;10.780.698.000;Q800052"
"130541;Huy?n ??m H�;3814;13;Qu?ng Ninh;240;VN;Vietnam;2.139.689.000;10.756.175.000;Q3593897"
"130534;Huy?n ?�ng Tri?u;3814;13;Qu?ng Ninh;240;VN;Vietnam;2.111.043.000;10.659.662.000;Q5295738"
"130314;Huy?n H?i H�;3814;13;Qu?ng Ninh;240;VN;Vietnam;2.149.537.000;10.766.790.000;Q5942590"
"130299;Huy?n Ho�nh B?;3814;13;Qu?ng Ninh;240;VN;Vietnam;2.111.888.000;10.703.149.000;Q3710927"
"130458;Huy?n Ti�n Y�n;3814;13;Qu?ng Ninh;240;VN;Vietnam;2.137.571.000;10.737.468.000;Q3711538"
"130494;Huy?n V�n ??n;3814;13;Qu?ng Ninh;240;VN;Vietnam;2.104.921.000;10.750.971.000;Q7484836"
"130573;M�ng C�i;3814;13;Qu?ng Ninh;240;VN;Vietnam;2.152.471.000;10.796.619.000;Q33204"
"130602;Th�nh Ph? U�ng B�;3814;13;Qu?ng Ninh;240;VN;Vietnam;2.103.433.000;10.677.049.000;Q7897883"
"130631;��ng H�;3803;25;Qu?ng Tr?;240;VN;Vietnam;1.681.625.000;10.710.031.000;Q33343"
"130242;Huy?n Cam L?;3803;25;Qu?ng Tr?;240;VN;Vietnam;1.679.335.000;10.696.175.000;Q4838559"
"130527;Huy?n ?a Kr�ng;3803;25;Qu?ng Tr?;240;VN;Vietnam;1.655.543.000;10.697.208.000;Q5295738"
"130288;Huy?n Gio Linh;3803;25;Qu?ng Tr?;240;VN;Vietnam;1.691.667.000;10.700.000.000;Q3031261"
"130316;Huy?n H?i L?ng;3803;25;Qu?ng Tr?;240;VN;Vietnam;1.667.574.000;10.723.388.000;Q5942590"
"130311;Huy?n H??ng H�a;3803;25;Qu?ng Tr?;240;VN;Vietnam;1.670.132.000;10.667.036.000;Q5942590"
"130462;Huy?n Tri?u Phong;3803;25;Qu?ng Tr?;240;VN;Vietnam;1.678.132.000;10.716.034.000;Q1320227"
"130500;Huy?n V?nh Linh;3803;25;Qu?ng Tr?;240;VN;Vietnam;1.701.600.000;10.693.384.000;Q7932536"
"130336;Huy?n K? S�ch;3819;52;S�c Tr?ng;240;VN;Vietnam;981.771.000;10.594.190.000;Q6405298"
"130343;Huy?n Long Ph�;3819;52;S�c Tr?ng;240;VN;Vietnam;963.715.000;10.608.226.000;Q3711115"
"130371;Huy?n M? T�;3819;52;S�c Tr?ng;240;VN;Vietnam;960.849.000;10.580.681.000;Q10796264"
"130372;Huy?n M? Xuy�n;3819;52;S�c Tr?ng;240;VN;Vietnam;944.200.000;10.588.546.000;Q10796264"
"130205;Huyen Nga Nam;3819;52;S�c Tr?ng;240;VN;Vietnam;956.127.000;10.559.476.000;Q724711"
"130450;Huy?n Th?nh Tr?;3819;52;S�c Tr?ng;240;VN;Vietnam;946.939.000;10.571.196.000;Q3711530"
"130592;S�c Tr?ng;3819;52;S�c Tr?ng;240;VN;Vietnam;959.995.000;10.597.193.000;Q33418"
"130238;Huy?n B?c Y�n;3812;5;S?n La;240;VN;Vietnam;2.125.042.000;10.438.501.000;Q4838559"
"130356;Huy?n Mai S?n;3812;5;S?n La;240;VN;Vietnam;2.115.884.000;10.404.821.000;Q2226906"
"130367;Huy?n M?c Ch�u;3812;5;S?n La;240;VN;Vietnam;2.183.333.000;10.475.000.000;Q10796264"
"130363;Huy?n M??ng La;3812;5;S?n La;240;VN;Vietnam;2.152.960.000;10.411.113.000;Q10796264"
"130398;Huy?n Ph� Y�n;3812;5;S?n La;240;VN;Vietnam;2.121.412.000;10.468.993.000;Q724739"
"130416;Huy?n Qu?nh Nhai;3812;5;S?n La;240;VN;Vietnam;2.177.224.000;10.364.920.000;Q5370368"
"130422;Huy?n S�ng M�;3812;5;S?n La;240;VN;Vietnam;2.106.971.000;10.368.727.000;Q7395483"
"130440;Huy?n Thu?n Ch�u;3812;5;S?n La;240;VN;Vietnam;2.142.319.000;10.364.408.000;Q3031911"
"130512;Huy?n Y�n Ch�u;3812;5;S?n La;240;VN;Vietnam;2.100.500.000;10.433.264.000;Q8052181"
"130594;S?n La;3812;5;S?n La;240;VN;Vietnam;2.132.560.000;10.391.882.000;Q33415"
"130239;Huy?n B?n C?u;3826;37;T�y Ninh;240;VN;Vietnam;1.112.889.000;10.614.296.000;Q4838559"
"130282;Huy?n D??ng Minh Ch�u;3826;37;T�y Ninh;240;VN;Vietnam;1.131.833.000;10.625.697.000;Q3031197"
"130294;Huy?n G� D?u;3826;37;T�y Ninh;240;VN;Vietnam;1.115.737.000;10.627.307.000;Q3710927"
"130306;Huy?n H�a Th�nh;3826;37;T�y Ninh;240;VN;Vietnam;1.126.706.000;10.614.486.000;Q5874252"
"130480;Huy?n T�n Ch�u;3826;37;T�y Ninh;240;VN;Vietnam;1.158.739.000;10.628.270.000;Q3711512"
"130472;Huy?n Tr?ng B�ng;3826;37;T�y Ninh;240;VN;Vietnam;1.105.720.000;10.637.539.000;Q286486"
"130581;Ph� Kh??ng;3826;37;T�y Ninh;240;VN;Vietnam;1.128.333.000;10.613.333.000;Q32224301"
"130621;T�y Ninh;3826;37;T�y Ninh;240;VN;Vietnam;1.131.004.000;10.609.828.000;Q130391"
"130524;Huy?n ��ng H?ng;3775;20;Th�i B�nh;240;VN;Vietnam;2.054.388.000;10.634.090.000;Q5295738"
"130309;Huy?n H?ng H�;3775;20;Th�i B�nh;240;VN;Vietnam;2.059.464.000;10.621.230.000;Q5874252"
"130331;Huy?n Ki?n X??ng;3775;20;Th�i B�nh;240;VN;Vietnam;2.040.081.000;10.642.032.000;Q6405298"
"130417;Huy?n Qu?nh Ph?;3775;20;Th�i B�nh;240;VN;Vietnam;2.065.095.000;10.636.359.000;Q5370368"
"130442;Huy?n Th�i Th?y;3775;20;Th�i B�nh;240;VN;Vietnam;2.053.916.000;10.651.688.000;Q3711534"
"130459;Huy?n Ti?n H?i;3775;20;Th�i B�nh;240;VN;Vietnam;2.038.465.000;10.652.882.000;Q3711538"
"130504;Huy?n V? Th?;3775;20;Th�i B�nh;240;VN;Vietnam;2.043.732.000;10.626.529.000;Q7932536"
"130605;Th�i B�nh;3775;20;Th�i B�nh;240;VN;Vietnam;2.045.000.000;10.634.002.000;Q36497"
"130606;Th�i Nguy�n;3807;69;Th�i Nguy�n;240;VN;Vietnam;2.159.422.000;10.584.817.000;Q26581"
"130181;B?m S?n;3771;21;Thanh H�a;240;VN;Vietnam;2.007.806.000;10.586.028.000;Q31887770"
"130218;Huy?n B� Th??c;3771;21;Thanh H�a;240;VN;Vietnam;2.035.767.000;10.525.301.000;Q3710671"
"130276;Huy?n C?m Th?y;3771;21;Thanh H�a;240;VN;Vietnam;2.019.586.000;10.546.817.000;Q3031197"
"130533;Huy?n ?�ng S?n;3771;21;Thanh H�a;240;VN;Vietnam;1.979.742.000;10.572.465.000;Q5295738"
"130301;Huy?n H� Trung;3771;21;Thanh H�a;240;VN;Vietnam;2.002.654.000;10.581.931.000;Q3710927"
"130317;Huy?n H?u L?c;3771;21;Thanh H�a;240;VN;Vietnam;1.993.337.000;10.588.894.000;Q5942590"
"130341;Huy?n Lang Ch�nh;3771;21;Thanh H�a;240;VN;Vietnam;2.015.926.000;10.515.071.000;Q6473680"
"130364;Huy?n M??ng L�t;3771;21;Thanh H�a;240;VN;Vietnam;2.052.763.000;10.462.941.000;Q10796264"
"130380;Huy?n Nga S?n;3771;21;Thanh H�a;240;VN;Vietnam;2.001.561.000;10.598.975.000;Q3031601"
"130389;Huy?n Ng?c L?c;3771;21;Thanh H�a;240;VN;Vietnam;2.006.777.000;10.537.386.000;Q3711242"
"130391;Huy?n Nh? Thanh;3771;21;Thanh H�a;240;VN;Vietnam;1.957.798.000;10.555.616.000;Q3711242"
"130392;Huy?n Nh? Xu�n;3771;21;Thanh H�a;240;VN;Vietnam;1.962.527.000;10.538.856.000;Q3711242"
"130393;Huy?n N�ng C?ng;3771;21;Thanh H�a;240;VN;Vietnam;1.961.376.000;10.568.279.000;Q3711242"
"130404;Huy?n Quan H�a;3771;21;Thanh H�a;240;VN;Vietnam;2.047.565.000;10.495.335.000;Q3091652"
"130405;Huy?n Quan S?n;3771;21;Thanh H�a;240;VN;Vietnam;2.025.758.000;10.483.416.000;Q3091652"
"130409;Huy?n Qu?ng X??ng;3771;21;Thanh H�a;240;VN;Vietnam;1.970.252.000;10.579.298.000;Q596473"
"130439;Huy?n Thi?u H�a;3771;21;Thanh H�a;240;VN;Vietnam;1.989.713.000;10.568.144.000;Q3031911"
"130451;Huy?n Th? Xu�n;3771;21;Thanh H�a;240;VN;Vietnam;1.993.114.000;10.548.284.000;Q3711530"
"130445;Huy?n Th??ng Xu�n;3771;21;Thanh H�a;240;VN;Vietnam;1.993.684.000;10.524.109.000;Q3711534"
"130463;Huy?n Tri?u S?n;3771;21;Thanh H�a;240;VN;Vietnam;1.982.578.000;10.558.293.000;Q1320227"
"130501;Huy?n V?nh L?c;3771;21;Thanh H�a;240;VN;Vietnam;2.003.482.000;10.565.755.000;Q7932536"
"130522;Huy?n Y�n ??nh;3771;21;Thanh H�a;240;VN;Vietnam;1.998.666.000;10.561.482.000;Q1924620"
"130597;Thanh H�a;3771;21;Thanh H�a;240;VN;Vietnam;1.980.000.000;10.576.667.000;Q36175"
"130554;Hu?;3798;26;Th?a Thi�n-Hu?;240;VN;Vietnam;1.646.190.000;10.759.546.000;Q36167"
"130207;Huy?n A L??i;3798;26;Th?a Thi�n-Hu?;240;VN;Vietnam;1.623.422.000;10.730.650.000;Q724711"
"130379;Huy?n Nam ?�ng;3798;26;Th?a Thi�n-Hu?;240;VN;Vietnam;1.612.396.000;10.769.270.000;Q3031601"
"130395;Huy?n Phong ?i?n;3798;26;Th?a Thi�n-Hu?;240;VN;Vietnam;1.648.769.000;10.728.889.000;Q724739"
"130399;Huy?n Ph� L?c;3798;26;Th?a Thi�n-Hu?;240;VN;Vietnam;1.627.066.000;10.788.545.000;Q724739"
"130402;Huy?n Ph� Vang;3798;26;Th?a Thi�n-Hu?;240;VN;Vietnam;1.647.007.000;10.771.458.000;Q1319796"
"130410;Huy?n Qu?ng �i?n;3798;26;Th?a Thi�n-Hu?;240;VN;Vietnam;1.657.941.000;10.749.370.000;Q596473"
"130266;Huy?n C�i B�;3781;46;Ti?n Giang;240;VN;Vietnam;1.038.824.000;10.594.620.000;Q800052"
"130241;Huy?n Cai L?y;3781;46;Ti?n Giang;240;VN;Vietnam;1.038.943.000;10.606.774.000;Q4838559"
"130252;Huy?n Ch�u Th�nh;3781;46;Ti?n Giang;240;VN;Vietnam;1.038.600.000;10.627.311.000;Q3710806"
"130260;Huy?n Ch? G?o;3781;46;Ti?n Giang;240;VN;Vietnam;1.037.373.000;10.644.341.000;Q1319826"
"130293;Huy?n G� C�ng ?�ng;3781;46;Ti?n Giang;240;VN;Vietnam;1.036.784.000;10.674.592.000;Q3710927"
"130292;Huy?n G� C�ng T�y;3781;46;Ti?n Giang;240;VN;Vietnam;1.034.527.000;10.659.851.000;Q3710927"
"130486;Huy?n T�n Ph??c;3781;46;Ti?n Giang;240;VN;Vietnam;1.051.489.000;10.623.312.000;Q3711512"
"130574;M? Tho;3781;46;Ti?n Giang;240;VN;Vietnam;1.036.004.000;10.635.996.000;Q33425"
"130599;Th�nh Ph? M? Tho;3781;46;Ti?n Giang;240;VN;Vietnam;1.036.221.000;10.636.824.000;Q36175"
"130610;Th? X� G� C�ng;3781;46;Ti?n Giang;240;VN;Vietnam;1.040.005.000;10.665.847.000;Q3031171"
"130265;Huy?n C�ng Long;3805;51;Tr� Vinh;240;VN;Vietnam;995.883.000;10.621.395.000;Q800052"
"130272;Huy?n C?u K�;3805;51;Tr� Vinh;240;VN;Vietnam;986.738.000;10.607.916.000;Q800052"
"130273;Huy?n C?u Ngang;3805;51;Tr� Vinh;240;VN;Vietnam;977.186.000;10.643.654.000;Q800052"
"130460;Huy?n Ti?u C?n;3805;51;Tr� Vinh;240;VN;Vietnam;980.350.000;10.620.594.000;Q3711538"
"130465;Huy?n Tr� C�;3805;51;Tr� Vinh;240;VN;Vietnam;969.706.000;10.629.423.000;Q7831038"
"130617;Tr� Vinh;3805;51;Tr� Vinh;240;VN;Vietnam;994.719.000;10.634.225.000;Q36136"
"130247;Huy?n Chi�m H�a;3795;7;Tuy�n Quang;240;VN;Vietnam;2.217.895.000;10.527.671.000;Q3710815"
"130305;Huy?n H�m Y�n;3795;7;Tuy�n Quang;240;VN;Vietnam;2.210.935.000;10.501.630.000;Q3710957"
"130345;Huy?n L�m B�nh;3795;7;Tuy�n Quang;240;VN;Vietnam;2.246.411.000;10.521.903.000;Q3711115"
"130373;Huy?n Na Hang;3795;7;Tuy�n Quang;240;VN;Vietnam;2.247.522.000;10.548.380.000;Q3711220"
"130423;Huy?n S?n D??ng;3795;7;Tuy�n Quang;240;VN;Vietnam;2.163.623.000;10.538.901.000;Q3711485"
"130519;Huy?n Y�n S?n;3795;7;Tuy�n Quang;240;VN;Vietnam;2.188.363.000;10.527.656.000;Q3711616"
"130619;Tuy�n Quang;3795;7;Tuy�n Quang;240;VN;Vietnam;2.182.356.000;10.521.424.000;Q33389"
"130342;Huy?n Long H?;3790;49;V?nh Long;240;VN;Vietnam;1.021.640.000;10.598.483.000;Q3711115"
"130357;Huy?n Mang Th�t;3790;49;V?nh Long;240;VN;Vietnam;1.018.731.000;10.607.472.000;Q2226906"
"130428;Huy?n Tam B�nh;3790;49;V?nh Long;240;VN;Vietnam;1.008.127.000;10.595.352.000;Q3711485"
"130468;Huy?n Tr� �n;3790;49;V?nh Long;240;VN;Vietnam;997.522.000;10.600.957.000;Q7831038"
"130505;Huy?n V?ng Li�m;3790;49;V?nh Long;240;VN;Vietnam;1.008.717.000;10.616.038.000;Q7932536"
"130624;V?nh Long;3790;49;V?nh Long;240;VN;Vietnam;1.025.369.000;10.597.220.000;Q34789"
"130225;Huy?n B�nh Xuy�n;3774;70;V?nh Ph�c;240;VN;Vietnam;2.130.561.000;10.566.225.000;Q800057"
"130429;Huy?n Tam D??ng;3774;70;V?nh Ph�c;240;VN;Vietnam;2.136.189.000;10.555.690.000;Q3711485"
"130432;Huy?n Tam ??o;3774;70;V?nh Ph�c;240;VN;Vietnam;2.145.690.000;10.559.460.000;Q3711485"
"130514;Huy?n Y�n L?c;3774;70;V?nh Ph�c;240;VN;Vietnam;2.121.845.000;10.557.586.000;Q8052181"
"130625;V?nh Y�n;3774;70;V?nh Ph�c;240;VN;Vietnam;2.130.891.000;10.560.489.000;Q36088"
"130355;Huy?n L?c Y�n;3784;6;Y�n B�i;240;VN;Vietnam;2.210.235.000;10.472.538.000;Q2226906"
"130360;Huy?n M� Cang Ch?i;3784;6;Y�n B�i;240;VN;Vietnam;2.178.815.000;10.411.998.000;Q10796264"
"130470;Huy?n Tr?m T?u;3784;6;Y�n B�i;240;VN;Vietnam;2.148.553.000;10.442.756.000;Q7831038"
"130473;Huy?n Tr?n Y�n;3784;6;Y�n B�i;240;VN;Vietnam;2.166.586.000;10.479.702.000;Q286486"
"130496;Huy?n V?n Ch?n;3784;6;Y�n B�i;240;VN;Vietnam;2.155.722.000;10.464.038.000;Q7484836"
"130497;Huy?n V?n Y�n;3784;6;Y�n B�i;240;VN;Vietnam;2.190.022.000;10.456.669.000;Q7484836"
